{
"Customers": [
              {"Name" : "Ashley Irwin","Address" : "8785 Windfall St.", "City":"Whitehall","State": "PA","PostalCode": "18052","PhoneNumber" : "2108938335"},
              {"Name" : "Billy Connolly","Address" : "1 N. Cactus Ave. ", "City":"Green Bay","State": "WI","PostalCode": "54302","PhoneNumber" : "4055643049"},
              {"Name" : "Athena Perez","Address" : "711 Old York Drive", "City":"Richmond","State": "VA","PostalCode": "23223","PhoneNumber" : "4237878493"},
              {"Name" : "Sorrel Brigman","Address" : "77 Winchester Lane", "City":"Coachella","State": "CA","PostalCode": "92236","PhoneNumber" : "7184150741"},
              {"Name" : "Phillip Lewis","Address" : "665 Clinton Lane", "City":"Wilkes Barre","State": "PA","PostalCode": "18702","PhoneNumber" : "6124372664"},
              {"Name" : "Luke Woodward","Address" : "787 Lakeview St.", "City":"Marion","State": "NC","PostalCode": "28752","PhoneNumber" : "9193085842"},
              {"Name" : "Luke Schuyler","Address" : "493 Mayfair Street ", "City":"Wantagh","State": "NY","PostalCode": "11793","PhoneNumber" : "3348070787"},
              {"Name" : "Micheal Tamborinino","Address" : "4 Wintergreen St.", "City":"Lansdale","State": "PA","PostalCode": "19446","PhoneNumber" : "6607851114"},
              {"Name" : "Peter Garrido","Address" : "7770 SE. Logan St.", "City":"Ogden","State": "UT","PostalCode": "84404","PhoneNumber" : "6205054541"},
              {"Name" : "Westley Isbell","Address" : "26 County Ave.", "City":"Bristol","State": "CT","PostalCode": "06010","PhoneNumber" : "3158543031"}
            ]
}
